     3.03           N: GNSS NAV DATA    M: MIXED            RINEX VERSION / TYPE
GR30 V4.20          ASI-egeos           20210712 235942 UTC PGM / RUN BY / DATE
GAL    4.9750D+01  2.4609D-01  8.8196D-03                   IONOSPHERIC CORR
GPSA   4.6566D-09  1.4901D-08 -5.9605D-08 -1.1921D-07       IONOSPHERIC CORR
GPSB   7.9872D+04  8.1920D+04 -6.5536D+04 -4.5875D+05       IONOSPHERIC CORR
BDSA   6.5193D-09  2.9802D-08 -2.9802D-07  4.1723D-07 W 05  IONOSPHERIC CORR
BDSA   6.5193D-09  2.9802D-08 -2.9802D-07  4.1723D-07 O 06  IONOSPHERIC CORR
BDSA   6.5193D-09  2.9802D-08 -2.9802D-07  4.1723D-07 W 07  IONOSPHERIC CORR
BDSA   7.4506D-09  1.4901D-08 -2.3842D-07  3.5763D-07 I 08  IONOSPHERIC CORR
BDSA   6.5193D-09  2.9802D-08 -2.9802D-07  4.1723D-07 S 09  IONOSPHERIC CORR
BDSA   6.5193D-09  2.9802D-08 -2.9802D-07  4.1723D-07 W 10  IONOSPHERIC CORR
BDSA   6.5193D-09  2.9802D-08 -2.9802D-07  4.1723D-07 M 11  IONOSPHERIC CORR
BDSA   6.5193D-09  2.9802D-08 -2.3842D-07  4.1723D-07 K 12  IONOSPHERIC CORR
BDSA   6.5193D-09  2.9802D-08 -2.3842D-07  4.1723D-07 K 13  IONOSPHERIC CORR
BDSA   6.5193D-09  2.9802D-08 -2.9802D-07  4.1723D-07 O 14  IONOSPHERIC CORR
BDSA   6.5193D-09  2.9802D-08 -2.9802D-07  4.1723D-07 Q 16  IONOSPHERIC CORR
BDSA   6.5193D-09  2.9802D-08 -2.9802D-07  4.1723D-07 W 19  IONOSPHERIC CORR
BDSA   6.5193D-09  2.9802D-08 -2.9802D-07  4.1723D-07 W 20  IONOSPHERIC CORR
BDSA   6.5193D-09  2.9802D-08 -2.9802D-07  4.1723D-07 X 21  IONOSPHERIC CORR
BDSA   6.5193D-09  2.9802D-08 -2.9802D-07  4.1723D-07 W 22  IONOSPHERIC CORR
BDSA   6.5193D-09  2.9802D-08 -2.9802D-07  4.1723D-07 U 23  IONOSPHERIC CORR
BDSA   7.4506D-09  1.4901D-08 -2.3842D-07  3.5763D-07 I 24  IONOSPHERIC CORR
BDSA   6.5193D-09  2.9802D-08 -2.9802D-07  4.1723D-07 S 25  IONOSPHERIC CORR
BDSA   7.4506D-09  7.4506D-09 -1.7881D-07  2.9802D-07 G 26  IONOSPHERIC CORR
BDSA   6.5193D-09  2.9802D-08 -2.9802D-07  4.1723D-07 X 27  IONOSPHERIC CORR
BDSA   6.5193D-09  2.9802D-08 -2.9802D-07  4.1723D-07 Q 28  IONOSPHERIC CORR
BDSA   6.5193D-09  2.9802D-08 -2.9802D-07  4.1723D-07 U 29  IONOSPHERIC CORR
BDSA   6.5193D-09  2.9802D-08 -2.9802D-07  4.1723D-07 X 30  IONOSPHERIC CORR
BDSB   1.0650D+05  3.4406D+05 -1.1141D+06  7.2090D+05 W 05  IONOSPHERIC CORR
BDSB   1.0650D+05  2.9491D+05 -8.5197D+05  5.2429D+05 O 06  IONOSPHERIC CORR
BDSB   1.0650D+05  3.4406D+05 -1.1141D+06  7.2090D+05 W 07  IONOSPHERIC CORR
BDSB   1.0650D+05  2.9491D+05 -8.5197D+05  5.2429D+05 I 08  IONOSPHERIC CORR
BDSB   1.0650D+05  2.9491D+05 -9.8304D+05  6.5536D+05 S 09  IONOSPHERIC CORR
BDSB   1.0650D+05  3.4406D+05 -1.1141D+06  7.2090D+05 W 10  IONOSPHERIC CORR
BDSB   1.0854D+05  2.4576D+05 -6.5536D+05  3.9322D+05 M 11  IONOSPHERIC CORR
BDSB   1.0854D+05  2.6214D+05 -7.2090D+05  3.9322D+05 K 12  IONOSPHERIC CORR
BDSB   1.0854D+05  2.6214D+05 -7.2090D+05  3.9322D+05 K 13  IONOSPHERIC CORR
BDSB   1.0650D+05  2.9491D+05 -8.5197D+05  5.2429D+05 O 14  IONOSPHERIC CORR
BDSB   1.0650D+05  2.7853D+05 -7.8643D+05  4.5875D+05 Q 16  IONOSPHERIC CORR
BDSB   1.0650D+05  3.4406D+05 -1.1141D+06  7.2090D+05 W 19  IONOSPHERIC CORR
BDSB   1.0650D+05  3.4406D+05 -1.1141D+06  7.2090D+05 W 20  IONOSPHERIC CORR
BDSB   1.0650D+05  3.4406D+05 -1.1141D+06  7.2090D+05 X 21  IONOSPHERIC CORR
BDSB   1.0650D+05  3.4406D+05 -1.1141D+06  7.2090D+05 W 22  IONOSPHERIC CORR
BDSB   1.0650D+05  3.2768D+05 -1.0486D+06  6.5536D+05 U 23  IONOSPHERIC CORR
BDSB   1.0650D+05  2.9491D+05 -8.5197D+05  5.2429D+05 I 24  IONOSPHERIC CORR
BDSB   1.0650D+05  2.9491D+05 -9.8304D+05  6.5536D+05 S 25  IONOSPHERIC CORR
BDSB   1.0445D+05  3.1130D+05 -9.1750D+05  5.2429D+05 G 26  IONOSPHERIC CORR
BDSB   1.0650D+05  3.4406D+05 -1.1141D+06  7.2090D+05 X 27  IONOSPHERIC CORR
BDSB   1.0650D+05  2.7853D+05 -7.8643D+05  4.5875D+05 Q 28  IONOSPHERIC CORR
BDSB   1.0650D+05  3.2768D+05 -1.0486D+06  6.5536D+05 U 29  IONOSPHERIC CORR
BDSB   1.0650D+05  3.4406D+05 -1.1141D+06  7.2090D+05 X 30  IONOSPHERIC CORR
GPUT -2.7939677238D-09-7.105427358D-15 405504 2166          TIME SYSTEM CORR
GLUT  1.5366822481D-08 0.000000000D+00      0    0          TIME SYSTEM CORR
GAUT -9.3132257462D-10 0.000000000D+00  86400 2166          TIME SYSTEM CORR
GPGA  2.5320332497D-09 8.881784197D-16 172800 2166          TIME SYSTEM CORR
BDUT -7.4505805969D-09 0.000000000D+00 172745  810          TIME SYSTEM CORR
    18    18  1929     7                                    LEAP SECONDS
                                                            END OF HEADER
G22 2021 07 13 14 00 00-5.646427161992D-04 9.549694368616D-12 0.000000000000D+00
     1.000000000000D+02-1.142812500000D+02 5.165929467412D-09 1.773218908725D+00
    -5.943700671196D-06 6.926096626557D-03 4.246830940247D-06 5.153790843964D+03
     2.232000000000D+05 1.322478055954D-07 2.906309269915D+00 8.009374141693D-08
     9.358913930502D-01 2.801250000000D+02-9.219749005953D-01-8.479281767549D-09
    -4.068026592493D-10 1.000000000000D+00 2.166000000000D+03 0.000000000000D+00
     2.800000000000D+00 0.000000000000D+00-1.769512891769D-08 1.000000000000D+02
     2.160000000000D+05                   
G08 2021 07 13 14 00 00-2.866145223379D-05-1.477928890381D-12 0.000000000000D+00
     3.900000000000D+01 1.015000000000D+02 4.274463762859D-09 2.882000669707D+00
     5.284324288368D-06 6.363049265929D-03 1.067109405994D-05 5.153628637314D+03
     2.232000000000D+05-1.266598701477D-07 8.941798827984D-01-1.676380634308D-08
     9.670190069889D-01 1.759375000000D+02 6.114734684958D-02-7.755323040334D-09
     5.607376426879D-11 1.000000000000D+00 2.166000000000D+03 0.000000000000D+00
     2.000000000000D+00 0.000000000000D+00 5.122274160385D-09 3.900000000000D+01
     2.160000000000D+05                   
R05 2021 07 13 12 15 00 7.526949048042D-05 9.094947017729D-13 2.160000000000D+05
     1.954550390625D+04-1.376864433289D+00 4.656612873077D-09 0.000000000000D+00
     1.213679541016D+04-6.432609558105D-01 2.793967723846D-09 1.000000000000D+00
     1.105048144531D+04 3.143322944641D+00 9.313225746155D-10 0.000000000000D+00
R21 2021 07 13 12 15 00-2.235528081656D-04-2.728484105319D-12 2.160000000000D+05
     5.604235351563D+03 3.612890243530D-01 0.000000000000D+00 0.000000000000D+00
    -1.606531103516D+04 2.585645675659D+00 9.313225746155D-10 4.000000000000D+00
     1.900950634766D+04 2.074958801270D+00-1.862645149231D-09 0.000000000000D+00
R04 2021 07 13 12 15 00 9.559188038111D-05 1.818989403546D-12 2.160000000000D+05
     4.046112792969D+03-2.832187652588D+00 3.725290298462D-09 0.000000000000D+00
     1.226148583984D+04-1.018927574158D+00 9.313225746155D-10 6.000000000000D+00
     2.202841894531D+04 1.088285446167D+00-9.313225746155D-10 0.000000000000D+00
R10 2021 07 13 12 15 00-7.284153252840D-05 0.000000000000D+00 2.160000000000D+05
     1.881008251953D+04-7.971286773682D-02-0.000000000000D+00 0.000000000000D+00
    -1.727890771484D+04-1.448459625244D-01 1.862645149231D-09-7.000000000000D+00
     2.789550781250D+02-3.561779975891D+00 9.313225746155D-10 0.000000000000D+00
R19 2021 07 13 12 15 00-1.513501629233D-04-9.094947017729D-13 2.160000000000D+05
     8.130253906250D+03 4.505786895752D-01 4.656612873077D-09 0.000000000000D+00
     2.204198974609D+04 1.306071281433D+00 9.313225746155D-10 3.000000000000D+00
     9.918983398438D+03-3.269667625427D+00 0.000000000000D+00 0.000000000000D+00
R20 2021 07 13 12 15 00-5.241483449936D-05-0.000000000000D+00 2.160000000000D+05
     1.091678710938D+04 5.663452148438D-01 3.725290298462D-09 0.000000000000D+00
     4.507674804688D+03 3.049979209900D+00 1.862645149231D-09 2.000000000000D+00
     2.261425634766D+04-8.778963088989D-01-9.313225746155D-10 0.000000000000D+00
C11 2021 07 13 12 00 00 4.551238380373D-04 2.214672889522D-11 0.000000000000D+00
     1.400000000000D+01 1.410625000000D+02 3.348710915822D-09-2.173136786018D+00
     6.949529051781D-06 1.855920068920D-03 6.955582648516D-06 5.282608112335D+03
     2.160000000000D+05 4.842877388000D-08 1.320031523309D+00 5.820766091347D-08
     9.902971979218D-01 2.337343750000D+02-2.065341345506D+00-6.671706474783D-09
     2.667968274445D-10                    8.100000000000D+02                   
     2.000000000000D+00 0.000000000000D+00 3.600000000000D-09 1.200000000000D-09
     2.160000000000D+05 0.000000000000D+00                                      
C21 2021 07 13 12 00 00-9.354981593788D-04-5.897504706809D-13 0.000000000000D+00
     1.000000000000D+00-1.304062500000D+02 3.300494621706D-09 1.882885076213D+00
    -6.292015314102D-06 7.430841214955D-04 1.034280285239D-05 5.282634817123D+03
     2.160000000000D+05-4.936009645462D-08-2.895753970725D+00 5.913898348808D-08
     9.661375125340D-01 1.535000000000D+02-7.508754516051D-01-6.568130731866D-09
    -1.271481533738D-10                    8.100000000000D+02                   
     2.000000000000D+00 0.000000000000D+00 1.410000000000D-08 1.410000000000D-08
     2.160000000000D+05 1.000000000000D+00                                      
C23 2021 07 13 12 00 00-9.694420732558D-04-1.502531432607D-11 0.000000000000D+00
     1.000000000000D+00-1.781250000000D+00 4.509830709694D-09-1.546394970266D+00
     9.778887033463D-09 3.774028737098D-04 4.988629370928D-06 5.282609350204D+03
     2.160000000000D+05-1.536682248116D-08-7.921569882896D-01 8.381903171539D-09
     9.490907937840D-01 2.542812500000D+02-1.756400576357D+00-7.080652080437D-09
    -4.285892810353D-12                    8.100000000000D+02                   
     2.000000000000D+00 0.000000000000D+00 2.500000000000D-08 2.500000000000D-08
     2.160000000000D+05 1.000000000000D+00                                      
